GSAT0101 (GALILEO-PFM)  
1 37846U 11060A   25275.92417751 -.00000075  00000+0  00000+0 0  9994
2 37846  57.0693 348.7434 0000733 289.9151  70.1352  1.70475694 86736
GSAT0102 (GALILEO-FM2)  
1 37847U 11060B   25278.19177191 -.00000073  00000+0  00000+0 0  9996
2 37847  57.0697 348.6821 0003053 297.5722  59.5653  1.70475757 86776
GSAT0103 (GALILEO-FM3)  
1 38857U 12055A   25275.96423577  .00000066  00000+0  00000+0 0  9998
2 38857  55.6476 108.6098 0001652 283.0303  77.0362  1.70473537 80629
GSAT0201 (GALILEO 5)    
1 40128U 14050A   25277.93726257 -.00000006  00000+0  00000+0 0  9994
2 40128  49.1544 283.8644 1641684 169.6613 194.1903  1.85519488 73580
GSAT0202 (GALILEO 6)    
1 40129U 14050B   25277.65479013 -.00000003  00000+0  00000+0 0  9996
2 40129  49.1703 282.9586 1642145 170.4091 193.1703  1.85520174 75747
GSAT0203 (GALILEO 7)    
1 40544U 15017A   25276.87565700 -.00000074  00000+0  00000+0 0  9991
2 40544  56.8631 348.5870 0005667 254.1709 105.8269  1.70476169 64838
GSAT0204 (GALILEO 8)    
1 40545U 15017B   25275.37118462 -.00000076  00000+0  00000+0 0  9997
2 40545  56.8696 348.6457 0006115 242.3328 117.6625  1.70475611 27856
GSAT0205 (GALILEO 9)    
1 40889U 15045A   25275.13917525  .00000019  00000+0  00000+0 0  9996
2 40889  55.0321 228.7338 0004120  20.5898 339.4012  1.70473011 62610
GSAT0206 (GALILEO 10)   
1 40890U 15045B   25277.70616661  .00000008  00000+0  00000+0 0  9998
2 40890  55.0303 228.6581 0002347 359.2448   0.7193  1.70472960 62680
GSAT0209 (GALILEO 12)   
1 41174U 15079A   25277.87506977  .00000074  00000+0  00000+0 0  9990
2 41174  55.6692 108.2709 0002879  10.6772 349.4142  1.70474039 60422
GSAT0208 (GALILEO 11)   
1 41175U 15079B   25275.74883519  .00000065  00000+0  00000+0 0  9995
2 41175  55.6663 108.3266 0002625  21.2515 338.8434  1.70473945 60805
GSAT0211 (GALILEO 14)   
1 41549U 16030A   25278.21847517  .00000006  00000+0  00000+0 0  9996
2 41549  55.1794 228.7067 0003408 334.9654  24.9813  1.70472955 58322
GSAT0210 (GALILEO 13)   
1 41550U 16030B   25276.12975781  .00000015  00000+0  00000+0 0  9991
2 41550  55.1797 228.7624 0003404 247.5572 112.3771  1.70473479 58282
GSAT0207 (GALILEO 15)   
1 41859U 16069A   25275.82208040  .00000064  00000+0  00000+0 0  9992
2 41859  55.3365 108.2138 0002321 347.3711  12.7070  1.70474002 55016
GSAT0212 (GALILEO 16)   
1 41860U 16069B   25278.02216414  .00000073  00000+0  00000+0 0  9993
2 41860  55.3358 108.1483 0003045  38.9219 321.1847  1.70474145 55301
GSAT0213 (GALILEO 17)   
1 41861U 16069C   25277.80326536  .00000072  00000+0  00000+0 0  9995
2 41861  55.3375 108.1618 0001630 305.2955  54.7744  1.70474539 55162
GSAT0214 (GALILEO 18)   
1 41862U 16069D   25277.94917951  .00000073  00000+0  00000+0 0  9999
2 41862  55.3379 108.1508 0000977 338.3837  21.6970  1.70474233 55293
GSAT0215 (GALILEO 19)   
1 43055U 17079A   25277.85212111  .00000007  00000+0  00000+0 0  9990
2 43055  55.1573 228.5321 0002729 279.7806  80.1528  1.70473715 48637
GSAT0216 (GALILEO 20)   
1 43056U 17079B   25277.55686872  .00000009  00000+0  00000+0 0  9999
2 43056  55.1579 228.5402 0004135 286.4536  73.4659  1.70473875 48640
GSAT0217 (GALILEO 21)   
1 43057U 17079C   25278.36412802  .00000006  00000+0  00000+0 0  9997
2 43057  55.1550 228.5159 0003547 301.1821  58.7463  1.70473795 48647
GSAT0218 (GALILEO 22)   
1 43058U 17079D   25276.23787116  .00000014  00000+0  00000+0 0  9994
2 43058  55.1567 228.5721 0004595 281.3480  78.5703  1.70473856 48639
GSAT0221 (GALILEO 25)   
1 43564U 18060A   25273.79438470 -.00000079  00000+0  00000+0 0  9993
2 43564  57.2450 348.7902 0005023 266.2715  93.7267  1.70476266 44741
GSAT0222 (GALILEO 26)   
1 43565U 18060B   25278.11971560 -.00000072  00000+0  00000+0 0  9990
2 43565  57.2477 348.6763 0005377 242.4274 117.5813  1.70475800 44861
GSAT0219 (GALILEO 23)   
1 43566U 18060C   25275.40801403 -.00000075  00000+0  00000+0 0  9991
2 43566  57.2474 348.7511 0004160 269.4784  90.5314  1.70476097 44792
GSAT0220 (GALILEO 24)   
1 43567U 18060D   25277.38865786 -.00000073  00000+0  00000+0 0  9993
2 43567  57.2467 348.6985 0004855 267.0532  92.9529  1.70475857 44815
GSAT0223 (GALILEO 27)   
1 49809U 21116A   25274.32308355 -.00000078  00000+0  00000+0 0  9994
2 49809  57.2371 348.6725 0004196 220.8261 148.4782  1.70476339 23776
GSAT0224 (GALILEO 28)   
1 49810U 21116B   25278.18484426 -.00000072  00000+0  00000+0 0  9992
2 49810  57.2367 348.5668 0003507 220.6967 111.2402  1.70476119 23856
GSAT0225 (GALILEO 29)   
1 59598U 24079A   25276.50635294  .00000067  00000+0  00000+0 0  9995
2 59598  54.9552 108.2596 0001927 150.4202 223.6465  1.70474337  8947
GSAT0227 (GALILEO 30)   
1 59600U 24079C   25278.42674890  .00000072  00000+0  00000+0 0  9993
2 59600  54.9522 108.2046 0003915 102.2631 257.8644  1.70474325  9023
GSAT0232 (GALILEO 32)   
1 61182U 24167A   25271.23049442  .00000023  00000+0  00000+0 0  9996
2 61182  55.2704 228.5007 0004270 234.9847 223.5149  1.70473593  6413
GSAT0226 (GALILEO 31)   
1 61183U 24167B   25275.87214491  .00000016  00000+0  00000+0 0  9991
2 61183  55.2683 228.3792 0001889 233.0888 306.7227  1.70473545  6460
